[{"OBJECT_NAME":"ONEWEB-0397","OBJECT_ID":"2021-132J","EPOCH":"2026-02-14T06:17:19.263264","MEAN_MOTION":13.18684263,"ECCENTRICITY":0.00018066,"INCLINATION":87.9232,"RA_OF_ASC_NODE":359.856,"ARG_OF_PERICENTER":74.4659,"MEAN_ANOMALY":285.6672,"EPHEMERIS_TYPE":0,"CLASSIFICATION_TYPE":"U","NORAD_CAT_ID":50477,"ELEMENT_SET_NO":999,"REV_AT_EPOCH":20541,"BSTAR":0.00016444083,"MEAN_MOTION_DOT":7.8e-7,"MEAN_MOTION_DDOT":0},{"OBJECT_NAME":"ONEWEB-0398","OBJECT_ID":"2021-132K","EPOCH":"2026-02-13T23:48:15.527232","MEAN_MOTION":13.11416439,"ECCENTRICITY":0.00021772,"INCLINATION":87.8832,"RA_OF_ASC_NODE":45.5592,"ARG_OF_PERICENTER":93.5637,"MEAN_ANOMALY":266.574,"EPHEMERIS_TYPE":0,"CLASSIFICATION_TYPE":"U","NORAD_CAT_ID":50478,"ELEMENT_SET_NO":999,"REV_AT_EPOCH":19946,"BSTAR":0.0015235175,"MEAN_MOTION_DOT":5.53e-6,"MEAN_MOTION_DDOT":0},{"OBJECT_NAME":"ONEWEB-0399","OBJECT_ID":"2021-132L","EPOCH":"2026-02-14T01:18:36.024768","MEAN_MOTION":13.11417812,"ECCENTRICITY":0.00019995,"INCLINATION":87.8829,"RA_OF_ASC_NODE":45.5567,"ARG_OF_PERICENTER":73.0817,"MEAN_ANOMALY":287.053,"EPHEMERIS_TYPE":0,"CLASSIFICATION_TYPE":"U","NORAD_CAT_ID":50479,"ELEMENT_SET_NO":999,"REV_AT_EPOCH":19946,"BSTAR":0.000803376,"MEAN_MOTION_DOT":2.97e-6,"MEAN_MOTION_DDOT":0},{"OBJECT_NAME":"ONEWEB-0400","OBJECT_ID":"2021-132M","EPOCH":"2026-02-14T05:46:27.753600","MEAN_MOTION":13.18683915,"ECCENTRICITY":0.00019573,"INCLINATION":87.9232,"RA_OF_ASC_NODE":359.8501,"ARG_OF_PERICENTER":84.7055,"MEAN_ANOMALY":275.4301,"EPHEMERIS_TYPE":0,"CLASSIFICATION_TYPE":"U","NORAD_CAT_ID":50480,"ELEMENT_SET_NO":999,"REV_AT_EPOCH":20540,"BSTAR":-0.00042842038,"MEAN_MOTION_DOT":-1.56e-6,"MEAN_MOTION_DDOT":0},{"OBJECT_NAME":"ONEWEB-0401","OBJECT_ID":"2021-132N","EPOCH":"2026-02-13T21:44:16.752480","MEAN_MOTION":13.18684866,"ECCENTRICITY":0.0001668,"INCLINATION":87.9232,"RA_OF_ASC_NODE":359.9122,"ARG_OF_PERICENTER":78.7306,"MEAN_ANOMALY":281.4013,"EPHEMERIS_TYPE":0,"CLASSIFICATION_TYPE":"U","NORAD_CAT_ID":50481,"ELEMENT_SET_NO":999,"REV_AT_EPOCH":20536,"BSTAR":-0.00012708518,"MEAN_MOTION_DOT":-3.7e-7,"MEAN_MOTION_DDOT":0},{"OBJECT_NAME":"ONEWEB-0402","OBJECT_ID":"2021-132P","EPOCH":"2026-02-14T05:58:19.978176","MEAN_MOTION":13.18685849,"ECCENTRICITY":0.00013587,"INCLINATION":87.9233,"RA_OF_ASC_NODE":359.836,"ARG_OF_PERICENTER":75.0574,"MEAN_ANOMALY":285.0708,"EPHEMERIS_TYPE":0,"CLASSIFICATION_TYPE":"U","NORAD_CAT_ID":50482,"ELEMENT_SET_NO":999,"REV_AT_EPOCH":20543,"BSTAR":-5.0568325e-5,"MEAN_MOTION_DOT":-7.0e-8,"MEAN_MOTION_DDOT":0},{"OBJECT_NAME":"ONEWEB-0403","OBJECT_ID":"2021-132Q","EPOCH":"2026-02-14T06:33:57.500352","MEAN_MOTION":13.18684272,"ECCENTRICITY":0.00019848,"INCLINATION":87.9224,"RA_OF_ASC_NODE":359.8541,"ARG_OF_PERICENTER":78.0148,"MEAN_ANOMALY":282.1206,"EPHEMERIS_TYPE":0,"CLASSIFICATION_TYPE":"U","NORAD_CAT_ID":50483,"ELEMENT_SET_NO":999,"REV_AT_EPOCH":20539,"BSTAR":5.1264486e-5,"MEAN_MOTION_DOT":3.3e-7,"MEAN_MOTION_DDOT":0},{"OBJECT_NAME":"ONEWEB-0404","OBJECT_ID":"2021-132R","EPOCH":"2026-02-13T12:02:39.636096","MEAN_MOTION":13.11418263,"ECCENTRICITY":0.00020757,"INCLINATION":87.8834,"RA_OF_ASC_NODE":45.6742,"ARG_OF_PERICENTER":80.7816,"MEAN_ANOMALY":279.3547,"EPHEMERIS_TYPE":0,"CLASSIFICATION_TYPE":"U","NORAD_CAT_ID":50484,"ELEMENT_SET_NO":999,"REV_AT_EPOCH":19948,"BSTAR":-0.0005266487,"MEAN_MOTION_DOT":-1.74e-6,"MEAN_MOTION_DDOT":0},{"OBJECT_NAME":"ONEWEB-0405","OBJECT_ID":"2021-132S","EPOCH":"2026-02-13T21:49:01.090560","MEAN_MOTION":13.1868301,"ECCENTRICITY":0.00016873,"INCLINATION":87.9235,"RA_OF_ASC_NODE":359.9093,"ARG_OF_PERICENTER":73.5459,"MEAN_ANOMALY":286.5859,"EPHEMERIS_TYPE":0,"CLASSIFICATION_TYPE":"U","NORAD_CAT_ID":50485,"ELEMENT_SET_NO":999,"REV_AT_EPOCH":20574,"BSTAR":-0.00019093395,"MEAN_MOTION_DOT":-6.2e-7,"MEAN_MOTION_DDOT":0},{"OBJECT_NAME":"ONEWEB-0406","OBJECT_ID":"2021-132T","EPOCH":"2026-02-14T06:41:06.441792","MEAN_MOTION":13.18686483,"ECCENTRICITY":0.00022031,"INCLINATION":87.9228,"RA_OF_ASC_NODE":359.8629,"ARG_OF_PERICENTER":71.6503,"MEAN_ANOMALY":288.4869,"EPHEMERIS_TYPE":0,"CLASSIFICATION_TYPE":"U","NORAD_CAT_ID":50486,"ELEMENT_SET_NO":999,"REV_AT_EPOCH":20542,"BSTAR":2.3446805e-5,"MEAN_MOTION_DOT":2.2e-7,"MEAN_MOTION_DDOT":0},{"OBJECT_NAME":"ONEWEB-0407","OBJECT_ID":"2021-132U","EPOCH":"2026-02-14T06:31:34.810752","MEAN_MOTION":13.18684344,"ECCENTRICITY":0.00017343,"INCLINATION":87.9225,"RA_OF_ASC_NODE":359.8472,"ARG_OF_PERICENTER":81.0254,"MEAN_ANOMALY":279.1074,"EPHEMERIS_TYPE":0,"CLASSIFICATION_TYPE":"U","NORAD_CAT_ID":50487,"ELEMENT_SET_NO":999,"REV_AT_EPOCH":20536,"BSTAR":0.00013353205,"MEAN_MOTION_DOT":6.6e-7,"MEAN_MOTION_DDOT":0},{"OBJECT_NAME":"ONEWEB-0409","OBJECT_ID":"2021-132V","EPOCH":"2026-02-14T00:49:16.991616","MEAN_MOTION":13.11418756,"ECCENTRICITY":0.00022494,"INCLINATION":87.8837,"RA_OF_ASC_NODE":45.5485,"ARG_OF_PERICENTER":85.5954,"MEAN_ANOMALY":274.5431,"EPHEMERIS_TYPE":0,"CLASSIFICATION_TYPE":"U","NORAD_CAT_ID":50488,"ELEMENT_SET_NO":999,"REV_AT_EPOCH":19944,"BSTAR":-0.0010821871,"MEAN_MOTION_DOT":-3.71e-6,"MEAN_MOTION_DDOT":0},{"OBJECT_NAME":"ONEWEB-0412","OBJECT_ID":"2021-132W","EPOCH":"2026-02-14T06:14:57.199200","MEAN_MOTION":13.18684711,"ECCENTRICITY":0.000162,"INCLINATION":87.9234,"RA_OF_ASC_NODE":359.863,"ARG_OF_PERICENTER":74.1516,"MEAN_ANOMALY":285.9795,"EPHEMERIS_TYPE":0,"CLASSIFICATION_TYPE":"U","NORAD_CAT_ID":50489,"ELEMENT_SET_NO":999,"REV_AT_EPOCH":20545,"BSTAR":3.9732968e-5,"MEAN_MOTION_DOT":2.9e-7,"MEAN_MOTION_DDOT":0},{"OBJECT_NAME":"ONEWEB-0413","OBJECT_ID":"2021-132X","EPOCH":"2026-02-14T06:22:05.140992","MEAN_MOTION":13.18684293,"ECCENTRICITY":0.00015766,"INCLINATION":87.922,"RA_OF_ASC_NODE":359.8689,"ARG_OF_PERICENTER":80.5061,"MEAN_ANOMALY":279.6249,"EPHEMERIS_TYPE":0,"CLASSIFICATION_TYPE":"U","NORAD_CAT_ID":50490,"ELEMENT_SET_NO":999,"REV_AT_EPOCH":20539,"BSTAR":1.9517355e-5,"MEAN_MOTION_DOT":2.1e-7,"MEAN_MOTION_DDOT":0},{"OBJECT_NAME":"ONEWEB-0414","OBJECT_ID":"2021-132Y","EPOCH":"2026-02-14T06:00:43.349472","MEAN_MOTION":13.18686613,"ECCENTRICITY":0.00017725,"INCLINATION":87.9232,"RA_OF_ASC_NODE":359.8413,"ARG_OF_PERICENTER":72.9914,"MEAN_ANOMALY":287.1412,"EPHEMERIS_TYPE":0,"CLASSIFICATION_TYPE":"U","NORAD_CAT_ID":50491,"ELEMENT_SET_NO":999,"REV_AT_EPOCH":20542,"BSTAR":0.00019371279,"MEAN_MOTION_DOT":8.9e-7,"MEAN_MOTION_DDOT":0},{"OBJECT_NAME":"ONEWEB-0417","OBJECT_ID":"2021-132Z","EPOCH":"2026-02-14T06:12:34.237440","MEAN_MOTION":13.18684371,"ECCENTRICITY":0.00020811,"INCLINATION":87.9225,"RA_OF_ASC_NODE":359.8695,"ARG_OF_PERICENTER":75.7049,"MEAN_ANOMALY":284.4314,"EPHEMERIS_TYPE":0,"CLASSIFICATION_TYPE":"U","NORAD_CAT_ID":50492,"ELEMENT_SET_NO":999,"REV_AT_EPOCH":20540,"BSTAR":0.00020131842,"MEAN_MOTION_DOT":9.2e-7,"MEAN_MOTION_DDOT":0},{"OBJECT_NAME":"ONEWEB-0418","OBJECT_ID":"2021-132AA","EPOCH":"2026-02-14T06:26:39.554304","MEAN_MOTION":13.18686466,"ECCENTRICITY":0.00021843,"INCLINATION":87.923,"RA_OF_ASC_NODE":359.8556,"ARG_OF_PERICENTER":73.4524,"MEAN_ANOMALY":286.6848,"EPHEMERIS_TYPE":0,"CLASSIFICATION_TYPE":"U","NORAD_CAT_ID":50493,"ELEMENT_SET_NO":999,"REV_AT_EPOCH":20546,"BSTAR":0.00090072068,"MEAN_MOTION_DOT":3.68e-6,"MEAN_MOTION_DDOT":0}]
