ONEWEB-0397             
1 50477U 21132J   26045.26202851  .00000078  00000+0  16444-3 0  9991
2 50477  87.9232 359.8560 0001806  74.4659 285.6672 13.18684263205412
ONEWEB-0398             
1 50478U 21132K   26044.99184638  .00000553  00000+0  15235-2 0  9997
2 50478  87.8832  45.5592 0002177  93.5637 266.5740 13.11416439199464
ONEWEB-0399             
1 50479U 21132L   26045.05458362  .00000297  00000+0  80338-3 0  9996
2 50479  87.8829  45.5567 0001999  73.0817 287.0530 13.11417812199468
ONEWEB-0400             
1 50480U 21132M   26045.24059900 -.00000156  00000+0 -42842-3 0  9998
2 50480  87.9232 359.8501 0001957  84.7055 275.4301 13.18683915205400
ONEWEB-0401             
1 50481U 21132N   26044.90574945 -.00000037  00000+0 -12709-3 0  9999
2 50481  87.9232 359.9122 0001668  78.7306 281.4013 13.18684866205360
ONEWEB-0402             
1 50482U 21132P   26045.24884234 -.00000007  00000+0 -50568-4 0  9996
2 50482  87.9233 359.8360 0001358  75.0574 285.0708 13.18685849205439
ONEWEB-0403             
1 50483U 21132Q   26045.27358218  .00000033  00000+0  51264-4 0  9999
2 50483  87.9224 359.8541 0001984  78.0148 282.1206 13.18684272205391
ONEWEB-0404             
1 50484U 21132R   26044.50184764 -.00000174  00000+0 -52665-3 0  9991
2 50484  87.8834  45.6742 0002075  80.7816 279.3547 13.11418263199481
ONEWEB-0405             
1 50485U 21132S   26044.90904040 -.00000062  00000+0 -19093-3 0  9997
2 50485  87.9235 359.9093 0001687  73.5459 286.5859 13.18683010205743
ONEWEB-0406             
1 50486U 21132T   26045.27854678  .00000022  00000+0  23447-4 0  9993
2 50486  87.9228 359.8629 0002203  71.6503 288.4869 13.18686483205428
ONEWEB-0407             
1 50487U 21132U   26045.27193068  .00000066  00000+0  13353-3 0  9995
2 50487  87.9225 359.8472 0001734  81.0254 279.1074 13.18684344205360
ONEWEB-0409             
1 50488U 21132V   26045.03422444 -.00000371  00000+0 -10822-2 0  9991
2 50488  87.8837  45.5485 0002249  85.5954 274.5431 13.11418756199442
ONEWEB-0412             
1 50489U 21132W   26045.26038425  .00000029  00000+0  39733-4 0  9991
2 50489  87.9234 359.8630 0001620  74.1516 285.9795 13.18684711205459
ONEWEB-0413             
1 50490U 21132X   26045.26533728  .00000021  00000+0  19517-4 0  9999
2 50490  87.9220 359.8689 0001576  80.5061 279.6249 13.18684293205398
ONEWEB-0414             
1 50491U 21132Y   26045.25050173  .00000089  00000+0  19371-3 0  9998
2 50491  87.9232 359.8413 0001772  72.9914 287.1412 13.18686613205425
ONEWEB-0417             
1 50492U 21132Z   26045.25872960  .00000092  00000+0  20132-3 0  9996
2 50492  87.9225 359.8695 0002081  75.7049 284.4314 13.18684371205402
ONEWEB-0418             
1 50493U 21132AA  26045.26851336  .00000368  00000+0  90072-3 0  9998
2 50493  87.9230 359.8556 0002184  73.4524 286.6848 13.18686466205461
